start=new Date('2021-11-25T00:00:00.000Z').valueOf();
sats=[{"EPHEMERIS_TYPE":"0","APOAPSIS":"548.447","GP_ID":"190399956","OBJECT_TYPE":"PAYLOAD","CLASSIFICATION_TYPE":"U","INCLINATION":"53.0554","NORAD_CAT_ID":"48642","CENTER_NAME":"EARTH","LAUNCH_DATE":"2021-05-26","MEAN_MOTION_DOT":"-0.00000561","BSTAR":"-0.00001876800000","FILE":"3223022","REF_FRAME":"TEME","MEAN_ANOMALY":"298.4867","TLE_LINE1":"1 48642U 21044E   21328.34612671 -.00000561  00000-0 -18768-4 0  9999","DECAY_DATE":null,"TIME_SYSTEM":"UTC","REV_AT_EPOCH":"2762","ECCENTRICITY":"0.00017730","RCS_SIZE":"LARGE","TLE_LINE2":"2 48642  53.0554 313.1925 0001773  61.6300 298.4867 15.06398107 27627","PERIOD":"95.592","RA_OF_ASC_NODE":"313.1925","SEMIMAJOR_AXIS":"6925.354","OBJECT_ID":"2021-044E","MEAN_MOTION_DDOT":"0.0000000000000","MEAN_ELEMENT_THEORY":"SGP4","OBJECT_NAME":"STARLINK-2646","PERIAPSIS":"545.991","EPOCH":"2021-11-24T08:18:25.347744","COUNTRY_CODE":"US","ELEMENT_SET_NO":"999","MEAN_MOTION":"15.06398107","SITE":"AFETR","ARG_OF_PERICENTER":"61.6300"},{"RA_OF_ASC_NODE":"312.9790","SEMIMAJOR_AXIS":"6925.352","TLE_LINE2":"2 48643  53.0557 312.9790 0001870  64.2981 295.8201 15.06398970 27632","PERIOD":"95.592","OBJECT_ID":"2021-044F","MEAN_MOTION_DDOT":"0.0000000000000","MEAN_ELEMENT_THEORY":"SGP4","EPOCH":"2021-11-24T09:28:47.828064","COUNTRY_CODE":"US","PERIAPSIS":"545.922","OBJECT_NAME":"STARLINK-2704","ELEMENT_SET_NO":"999","MEAN_MOTION":"15.06398970","SITE":"AFETR","ARG_OF_PERICENTER":"64.2981","TLE_LINE1":"1 48643U 21044F   21328.39499801  .00000007  00000-0  19410-4 0  9991","DECAY_DATE":null,"TIME_SYSTEM":"UTC","REV_AT_EPOCH":"2763","ECCENTRICITY":"0.00018700","RCS_SIZE":"LARGE","LAUNCH_DATE":"2021-05-26","MEAN_MOTION_DOT":"0.00000007","BSTAR":"0.00001941000000","FILE":"3223022","MEAN_ANOMALY":"295.8201","REF_FRAME":"TEME","GP_ID":"190399378","EPHEMERIS_TYPE":"0","APOAPSIS":"548.512","OBJECT_TYPE":"PAYLOAD","INCLINATION":"53.0557","CLASSIFICATION_TYPE":"U","CENTER_NAME":"EARTH","NORAD_CAT_ID":"48643"},{"RCS_SIZE":"LARGE","ECCENTRICITY":"0.00016020","REV_AT_EPOCH":"2847","TIME_SYSTEM":"UTC","DECAY_DATE":null,"TLE_LINE1":"1 48644U 21044G   21328.39131156 -.00000564  00000-0 -18994-4 0  9994","ARG_OF_PERICENTER":"59.8991","SITE":"AFETR","MEAN_MOTION":"15.06386042","ELEMENT_SET_NO":"999","OBJECT_NAME":"STARLINK-2695","PERIAPSIS":"546.147","EPOCH":"2021-11-24T09:23:29.318784","COUNTRY_CODE":"US","MEAN_ELEMENT_THEORY":"SGP4","MEAN_MOTION_DDOT":"0.0000000000000","OBJECT_ID":"2021-044G","TLE_LINE2":"2 48644  53.0566 313.0004 0001602  59.8991 300.2156 15.06386042 28477","PERIOD":"95.593","SEMIMAJOR_AXIS":"6925.391","RA_OF_ASC_NODE":"313.0004","NORAD_CAT_ID":"48644","CENTER_NAME":"EARTH","CLASSIFICATION_TYPE":"U","INCLINATION":"53.0566","OBJECT_TYPE":"PAYLOAD","EPHEMERIS_TYPE":"0","APOAPSIS":"548.366","GP_ID":"190400341","FILE":"3223063","MEAN_ANOMALY":"300.2156","REF_FRAME":"TEME","BSTAR":"-0.00001899400000","MEAN_MOTION_DOT":"-0.00000564","LAUNCH_DATE":"2021-05-26"},{"FILE":"3223022","REF_FRAME":"TEME","MEAN_ANOMALY":"299.2825","BSTAR":"-0.00001203500000","MEAN_MOTION_DOT":"-0.00000461","LAUNCH_DATE":"2021-05-26","OBJECT_TYPE":"PAYLOAD","GP_ID":"190399209","APOAPSIS":"548.436","EPHEMERIS_TYPE":"0","CENTER_NAME":"EARTH","NORAD_CAT_ID":"48645","INCLINATION":"53.0571","CLASSIFICATION_TYPE":"U","MEAN_ELEMENT_THEORY":"SGP4","MEAN_MOTION_DDOT":"0.0000000000000","OBJECT_ID":"2021-044H","SEMIMAJOR_AXIS":"6925.373","RA_OF_ASC_NODE":"313.0132","TLE_LINE2":"2 48645  53.0571 313.0132 0001730  60.8337 299.2825 15.06392063 27631","PERIOD":"95.593","ARG_OF_PERICENTER":"60.8337","SITE":"AFETR","MEAN_MOTION":"15.06392063","ELEMENT_SET_NO":"999","COUNTRY_CODE":"US","EPOCH":"2021-11-24T09:18:11.374560","PERIAPSIS":"546.040","OBJECT_NAME":"STARLINK-2733","REV_AT_EPOCH":"2763","TIME_SYSTEM":"UTC","DECAY_DATE":null,"TLE_LINE1":"1 48645U 21044H   21328.38763165 -.00000461  00000-0 -12035-4 0  9991","RCS_SIZE":"LARGE","ECCENTRICITY":"0.00017300"},{"ECCENTRICITY":"0.00020490","RCS_SIZE":"LARGE","TLE_LINE1":"1 48646U 21044J   21328.38392951 -.00000215  00000-0  45120-5 0  9991","DECAY_DATE":null,"TIME_SYSTEM":"UTC","REV_AT_EPOCH":"2763","OBJECT_NAME":"STARLINK-2732","PERIAPSIS":"545.784","COUNTRY_CODE":"US","EPOCH":"2021-11-24T09:12:51.509664","ELEMENT_SET_NO":"999","MEAN_MOTION":"15.06403394","SITE":"AFETR","ARG_OF_PERICENTER":"51.4039","PERIOD":"95.592","TLE_LINE2":"2 48646  53.0551 313.0248 0002049  51.4039 308.7133 15.06403394 27635","RA_OF_ASC_NODE":"313.0248","SEMIMAJOR_AXIS":"6925.338","OBJECT_ID":"2021-044J","MEAN_MOTION_DDOT":"0.0000000000000","MEAN_ELEMENT_THEORY":"SGP4","INCLINATION":"53.0551","CLASSIFICATION_TYPE":"U","NORAD_CAT_ID":"48646","CENTER_NAME":"EARTH","EPHEMERIS_TYPE":"0","APOAPSIS":"548.622","GP_ID":"190399738","OBJECT_TYPE":"PAYLOAD","LAUNCH_DATE":"2021-05-26","MEAN_MOTION_DOT":"-0.00000215","BSTAR":"0.00000451200000","MEAN_ANOMALY":"308.7133","FILE":"3223022","REF_FRAME":"TEME"},{"INCLINATION":"53.0560","CLASSIFICATION_TYPE":"U","CENTER_NAME":"EARTH","NORAD_CAT_ID":"48647","GP_ID":"190399090","APOAPSIS":"548.506","EPHEMERIS_TYPE":"0","OBJECT_TYPE":"PAYLOAD","LAUNCH_DATE":"2021-05-26","MEAN_MOTION_DOT":"-0.00000187","BSTAR":"0.00000637690000","MEAN_ANOMALY":"301.2969","FILE":"3223022","REF_FRAME":"TEME","ECCENTRICITY":"0.00018850","RCS_SIZE":"LARGE","TLE_LINE1":"1 48647U 21044K   21328.38024307 -.00000187  00000-0  63769-5 0  9996","DECAY_DATE":null,"TIME_SYSTEM":"UTC","REV_AT_EPOCH":"2763","EPOCH":"2021-11-24T09:07:33.001248","COUNTRY_CODE":"US","PERIAPSIS":"545.895","OBJECT_NAME":"STARLINK-2691","ELEMENT_SET_NO":"999","MEAN_MOTION":"15.06404242","SITE":"AFETR","ARG_OF_PERICENTER":"58.8205","RA_OF_ASC_NODE":"313.0522","SEMIMAJOR_AXIS":"6925.336","PERIOD":"95.592","TLE_LINE2":"2 48647  53.0560 313.0522 0001885  58.8205 301.2969 15.06404242 27632","OBJECT_ID":"2021-044K","MEAN_MOTION_DDOT":"0.0000000000000","MEAN_ELEMENT_THEORY":"SGP4"},{"EPOCH":"2021-11-24T13:53:05.684064","COUNTRY_CODE":"US","PERIAPSIS":"545.114","OBJECT_NAME":"STARLINK-2521","ELEMENT_SET_NO":"999","SITE":"AFETR","MEAN_MOTION":"15.06190767","ARG_OF_PERICENTER":"70.0702","RA_OF_ASC_NODE":"312.1610","SEMIMAJOR_AXIS":"6925.990","PERIOD":"95.605","TLE_LINE2":"2 48648  53.0554 312.1610 0003957  70.0702 290.0713 15.06190767 28507","OBJECT_ID":"2021-044L","MEAN_MOTION_DDOT":"0.0000000000000","MEAN_ELEMENT_THEORY":"SGP4","ECCENTRICITY":"0.00039570","RCS_SIZE":"LARGE","TLE_LINE1":"1 48648U 21044L   21328.57853801 -.00025666  00000-0 -17197-2 0  9998","DECAY_DATE":null,"TIME_SYSTEM":"UTC","REV_AT_EPOCH":"2850","LAUNCH_DATE":"2021-05-26","MEAN_MOTION_DOT":"-0.00025666","BSTAR":"-0.00171970000000","FILE":"3223188","REF_FRAME":"TEME","MEAN_ANOMALY":"290.0713","INCLINATION":"53.0554","CLASSIFICATION_TYPE":"U","CENTER_NAME":"EARTH","NORAD_CAT_ID":"48648","GP_ID":"190403288","EPHEMERIS_TYPE":"0","APOAPSIS":"550.596","OBJECT_TYPE":"PAYLOAD"},{"OBJECT_TYPE":"PAYLOAD","EPHEMERIS_TYPE":"0","APOAPSIS":"548.556","GP_ID":"190399498","NORAD_CAT_ID":"48649","CENTER_NAME":"EARTH","INCLINATION":"53.0533","CLASSIFICATION_TYPE":"U","FILE":"3223022","REF_FRAME":"TEME","MEAN_ANOMALY":"299.0128","BSTAR":"0.00011389000000","MEAN_MOTION_DOT":"0.00001415","LAUNCH_DATE":"2021-05-26","REV_AT_EPOCH":"2758","TIME_SYSTEM":"UTC","DECAY_DATE":null,"TLE_LINE1":"1 48649U 21044M   21328.11117729  .00001415  00000-0  11389-3 0  9993","RCS_SIZE":"LARGE","ECCENTRICITY":"0.00019570","MEAN_ELEMENT_THEORY":"SGP4","MEAN_MOTION_DDOT":"0.0000000000000","OBJECT_ID":"2021-044M","PERIOD":"95.592","TLE_LINE2":"2 48649  53.0533 314.2599 0001957  61.1058 299.0128 15.06404331 27588","RA_OF_ASC_NODE":"314.2599","SEMIMAJOR_AXIS":"6925.335","ARG_OF_PERICENTER":"61.1058","MEAN_MOTION":"15.06404331","SITE":"AFETR","ELEMENT_SET_NO":"999","OBJECT_NAME":"STARLINK-2673","PERIAPSIS":"545.845","EPOCH":"2021-11-24T02:40:05.717856","COUNTRY_CODE":"US"},{"MEAN_MOTION_DOT":"0.00001426","LAUNCH_DATE":"2021-05-26","FILE":"3223022","REF_FRAME":"TEME","MEAN_ANOMALY":"302.3018","BSTAR":"0.00011459000000","INCLINATION":"53.0560","CLASSIFICATION_TYPE":"U","CENTER_NAME":"EARTH","NORAD_CAT_ID":"48650","OBJECT_TYPE":"PAYLOAD","GP_ID":"190399957","APOAPSIS":"548.645","EPHEMERIS_TYPE":"0","ELEMENT_SET_NO":"999","COUNTRY_CODE":"US","EPOCH":"2021-11-24T02:34:47.282880","OBJECT_NAME":"STARLINK-2672","PERIAPSIS":"545.765","ARG_OF_PERICENTER":"57.8173","SITE":"AFETR","MEAN_MOTION":"15.06402745","OBJECT_ID":"2021-044N","SEMIMAJOR_AXIS":"6925.340","RA_OF_ASC_NODE":"314.2739","PERIOD":"95.592","TLE_LINE2":"2 48650  53.0560 314.2739 0002079  57.8173 302.3018 15.06402745 27585","MEAN_ELEMENT_THEORY":"SGP4","MEAN_MOTION_DDOT":"0.0000000000000","ECCENTRICITY":"0.00020790","RCS_SIZE":"LARGE","DECAY_DATE":null,"TLE_LINE1":"1 48650U 21044N   21328.10749170  .00001426  00000-0  11459-3 0  9995","REV_AT_EPOCH":"2758","TIME_SYSTEM":"UTC"},{"REV_AT_EPOCH":"2762","TIME_SYSTEM":"UTC","DECAY_DATE":null,"TLE_LINE1":"1 48651U 21044P   21328.36919587 -.00000068  00000-0  14341-4 0  9991","RCS_SIZE":"LARGE","ECCENTRICITY":"0.00016630","MEAN_ELEMENT_THEORY":"SGP4","MEAN_MOTION_DDOT":"0.0000000000000","OBJECT_ID":"2021-044P","RA_OF_ASC_NODE":"313.0911","SEMIMAJOR_AXIS":"6925.351","TLE_LINE2":"2 48651  53.0552 313.0911 0001663  71.8292 288.2878 15.06399101 27624","PERIOD":"95.592","ARG_OF_PERICENTER":"71.8292","SITE":"AFETR","MEAN_MOTION":"15.06399101","ELEMENT_SET_NO":"999","COUNTRY_CODE":"US","EPOCH":"2021-11-24T08:51:38.523168","PERIAPSIS":"546.065","OBJECT_NAME":"STARLINK-2731","OBJECT_TYPE":"PAYLOAD","GP_ID":"190399379","EPHEMERIS_TYPE":"0","APOAPSIS":"548.368","CENTER_NAME":"EARTH","NORAD_CAT_ID":"48651","INCLINATION":"53.0552","CLASSIFICATION_TYPE":"U","REF_FRAME":"TEME","FILE":"3223022","MEAN_ANOMALY":"288.2878","BSTAR":"0.00001434100000","MEAN_MOTION_DOT":"-0.00000068","LAUNCH_DATE":"2021-05-26"}];
